STARLINK-34351          
1 64387U 25127T   26068.31403325  .00033068  00000+0  12051-2 0  9998
2 64387  42.9950 181.5511 0000119 283.2524  76.8314 15.27598977 42418
BANDWAGON-4 OBJECT Q    
1 66307U 25248Q   26067.98911828  .00022547  00000+0  92242-3 0  9991
2 66307  45.4076 295.4821 0011280 209.4727 150.5526 15.23978167 19300
